     2.10           N: GPS NAV DATA                         RINEX VERSION / TYPE
teqc  2012Jun6      ted zhou            20130104 01:08:24UTCPGM / RUN BY / DATE
    16                                                      LEAP SECONDS
Solaris x86 5.10|AMD64|cc SC5.8 -xarch=amd64|=+|=+          COMMENT
    1.3970D-08 -7.4506D-09 -5.9605D-08  1.1921D-07          ION ALPHA
    1.2698D+05 -1.9661D+05  6.5536D+04  2.6214D+05          ION BETA
   -9.313225746155D-10-2.664535259100D-15   503808     1721 DELTA-UTC: A0,A1,T,W
                                                            END OF HEADER
13 13  1  2 20  0  0.0 1.554870977998D-04-2.842170943040D-12 0.000000000000D+00
    9.600000000000D+01-1.896875000000D+01 4.058383333670D-09 1.495754336172D+00
   -1.139938831329D-06 4.869165946729D-03 8.294358849525D-06 5.153573408127D+03
    3.312000000000D+05 8.754432201386D-08-2.925501810070D+00-6.146728992462D-08
    9.835903563607D-01 2.273125000000D+02 2.068197229310D+00-7.839612265604D-09
   -5.160929259133D-10 1.000000000000D+00 1.721000000000D+03 0.000000000000D+00
    2.800000000000D+00 0.000000000000D+00-1.117587089539D-08 9.600000000000D+01
    3.284220000000D+05 4.000000000000D+00
16 13  1  2 20  0  0.0-2.514468505979D-04-3.410605131648D-13 0.000000000000D+00
    2.000000000000D+01 9.375000000000D+00 4.231961992489D-09 2.821553062908D+00
    5.085021257401D-07 6.772940279916D-03 3.928318619728D-06 5.153555015564D+03
    3.312000000000D+05-5.587935447693D-08-8.808450831448D-01-1.117587089539D-08
    9.831415389456D-01 3.175625000000D+02 2.692113490476D-02-8.089265521807D-09
    1.825076021742D-10 1.000000000000D+00 1.721000000000D+03 0.000000000000D+00
    2.000000000000D+00 0.000000000000D+00-9.778887033463D-09 2.000000000000D+01
    3.284580000000D+05 4.000000000000D+00
23 13  1  2 22  0  0.0 1.278012059629D-04-3.751665644813D-12 0.000000000000D+00
    8.900000000000D+01-1.890625000000D+01 4.827701093128D-09 1.762041268091D+00
   -8.344650268555D-07 8.135943324305D-03 7.860362529755D-06 5.153769596100D+03
    3.384000000000D+05-2.793967723846D-08-3.009826263139D+00 2.142041921616D-07
    9.578636004409D-01 2.289687500000D+02-2.916667429191D+00-8.263558496095D-09
   -4.832344143673D-10 1.000000000000D+00 1.721000000000D+03 0.000000000000D+00
    2.000000000000D+00 0.000000000000D+00-2.048909664154D-08 8.900000000000D+01
    3.312180000000D+05 4.000000000000D+00
20 13  1  2 22  0  0.0 7.861573249102D-05 1.364242052659D-12 0.000000000000D+00
    8.500000000000D+01 4.675000000000D+01 5.711666485264D-09-1.322987516060D+00
    2.592802047729D-06 5.445098155178D-03 5.451962351799D-06 5.153557796478D+03
    3.384000000000D+05 7.078051567078D-08 2.163616701789D+00 1.080334186554D-07
    9.285040956254D-01 2.598125000000D+02 1.281003951322D+00-8.703576824624D-09
    2.207234797332D-10 1.000000000000D+00 1.721000000000D+03 0.000000000000D+00
    2.000000000000D+00 0.000000000000D+00-7.916241884232D-09 8.500000000000D+01
    3.312180000000D+05 4.000000000000D+00
30 13  1  2 22  0  0.0-2.642632462084D-04 1.239186531166D-11 0.000000000000D+00
    1.080000000000D+02 2.650000000000D+01 4.589476884420D-09 2.827533309632D+00
    1.423060894012D-06 1.085334620439D-02 3.965571522713D-06 5.153603237152D+03
    3.384000000000D+05 1.229345798492D-07-1.028757526349D+00 3.166496753693D-08
    9.622780259651D-01 3.038125000000D+02 1.612513903768D+00-8.102837515707D-09
    1.342913080577D-10 1.000000000000D+00 1.721000000000D+03 0.000000000000D+00
    1.600000000000D+01 0.000000000000D+00-4.656612873077D-09 1.080000000000D+02
    3.312180000000D+05 4.000000000000D+00
32 13  1  2 22  0  0.0-5.226098001003D-04-3.524291969370D-12 0.000000000000D+00
    1.600000000000D+01 3.200000000000D+01 5.297363513596D-09 6.952013933114D-01
    1.640990376472D-06 1.168484997470D-02 5.049630999565D-06 5.153772417068D+03
    3.384000000000D+05 2.868473529816D-07 2.300444921919D+00-1.043081283569D-07
    9.498923646355D-01 2.776875000000D+02-4.213889196713D-01-8.548927525717D-09
    1.228622605635D-10 1.000000000000D+00 1.721000000000D+03 0.000000000000D+00
    2.000000000000D+00 0.000000000000D+00-3.259629011154D-09 1.600000000000D+01
    3.312180000000D+05 4.000000000000D+00
11 13  1  2 22  0  0.0-3.395904786885D-04-3.751665644813D-12 0.000000000000D+00
    1.740000000000D+02-2.400000000000D+01 6.104539992879D-09 3.174904793357D-01
   -1.294538378716D-06 1.380682503805D-02 1.090206205845D-05 5.153686807632D+03
    3.384000000000D+05-1.974403858185D-07 8.789720491482D-01 1.192092895508D-07
    8.885149402708D-01 1.334062500000D+02 1.135639383299D+00-8.942158191067D-09
    2.964409193828D-11 1.000000000000D+00 1.721000000000D+03 0.000000000000D+00
    2.800000000000D+00 0.000000000000D+00-1.164153218269D-08 1.740000000000D+02
    3.312180000000D+05 4.000000000000D+00
13 13  1  2 22  0  0.0 1.554666087031D-04-2.842170943040D-12 0.000000000000D+00
    1.100000000000D+02-1.759375000000D+01 4.134100773320D-09 2.545958137696D+00
   -7.804483175278D-07 4.869104479440D-03 8.407980203629D-06 5.153573745728D+03
    3.384000000000D+05 1.564621925354D-07-2.925558397204D+00 1.303851604462D-08
    9.835866829734D-01 2.271875000000D+02 2.068232533912D+00-7.846041104820D-09
   -4.721625246072D-10 1.000000000000D+00 1.721000000000D+03 0.000000000000D+00
    2.800000000000D+00 0.000000000000D+00-1.117587089539D-08 1.100000000000D+02
    3.312180000000D+05 4.000000000000D+00
 1 13  1  2 22  0  0.0 2.910550683737D-04 2.273736754432D-12 0.000000000000D+00
    3.900000000000D+01 1.268750000000D+01 4.386611291396D-09 5.194761593186D-01
    5.643814802170D-07 1.530760549940D-03 1.148320734501D-05 5.153715124130D+03
    3.384000000000D+05 1.676380634308D-08 1.165244539855D+00 4.284083843231D-08
    9.599129014368D-01 1.585937500000D+02 4.979557697880D-01-7.914615389785D-09
    2.457245211269D-10 1.000000000000D+00 1.721000000000D+03 0.000000000000D+00
    2.000000000000D+00 0.000000000000D+00 8.381903171539D-09 3.900000000000D+01
    3.312180000000D+05 4.000000000000D+00
16 13  1  2 22  0  0.0-2.514496445656D-04-3.410605131648D-13 0.000000000000D+00
    2.100000000000D+01 5.750000000000D+00 4.229104730616D-09-2.411417086115D+00
    3.259629011154D-07 6.773515255190D-03 4.140660166740D-06 5.153553867340D+03
    3.384000000000D+05-2.421438694000D-08-8.809032356013D-01-2.607703208923D-08
    9.831429462728D-01 3.144687500000D+02 2.695751328863D-02-8.071764792832D-09
    1.867934949846D-10 1.000000000000D+00 1.721000000000D+03 0.000000000000D+00
    2.000000000000D+00 0.000000000000D+00-9.778887033463D-09 2.100000000000D+01
    3.312180000000D+05 4.000000000000D+00
31 13  1  2 22  0  0.0 2.956041134894D-04 2.046363078989D-12 0.000000000000D+00
    1.430000000000D+02 4.271875000000D+01 3.964093691842D-09 6.741959055942D-02
    2.155080437660D-06 8.126325439662D-03 9.333714842796D-06 5.153801414490D+03
    3.384000000000D+05 5.587935447693D-09-1.953504176867D+00-1.247972249985D-07
    9.807278806471D-01 2.134375000000D+02-8.220317796660D-01-7.921758544469D-09
    4.285892810353D-12 1.000000000000D+00 1.721000000000D+03 0.000000000000D+00
    2.800000000000D+00 0.000000000000D+00-1.350417733192D-08 1.430000000000D+02
    3.312180000000D+05 4.000000000000D+00
11 13  1  2 21 59 44.0-3.395942039788D-04-3.865352482535D-12 0.000000000000D+00
    7.000000000000D+00-2.400000000000D+01 6.104539992879D-09 3.151570401500D-01
   -1.294538378716D-06 1.380683190655D-02 1.090206205845D-05 5.153686801910D+03
    3.383840000000D+05-1.974403858185D-07 8.789722056805D-01 1.192092895508D-07
    8.885149461225D-01 1.334062500000D+02 1.135639162398D+00-8.942158191067D-09
    2.964409193828D-11 1.000000000000D+00 1.721000000000D+03 0.000000000000D+00
    2.000000000000D+00 0.000000000000D+00-1.164153218269D-08 7.000000000000D+00
    3.312960000000D+05 4.000000000000D+00
13 13  1  2 21 59 44.0 1.554652117193D-04-2.842170943040D-12 0.000000000000D+00
    0.000000000000D+00-1.759375000000D+01 4.134100773320D-09 2.543623800278D+00
   -7.804483175278D-07 4.869100986980D-03 8.407980203629D-06 5.153573747635D+03
    3.383840000000D+05 1.564621925354D-07-2.925558275782D+00 1.303851604462D-08
    9.835866917509D-01 2.271875000000D+02 2.068232985954D+00-7.846041104820D-09
   -4.721625246072D-10 1.000000000000D+00 1.721000000000D+03 0.000000000000D+00
    2.000000000000D+00 0.000000000000D+00-1.117587089539D-08 0.000000000000D+00
    3.330360000000D+05 4.000000000000D+00
 7 13  1  2 22  0  0.0 1.643854193389D-04 4.433786671143D-12 0.000000000000D+00
    6.400000000000D+01 4.471875000000D+01 4.054097440860D-09 1.166120718066D-01
    2.183020114899D-06 6.050785770640D-03 9.864568710327D-06 5.153717271805D+03
    3.384000000000D+05 5.960464477539D-08-1.957399626351D+00 3.166496753693D-08
    9.757061773473D-01 1.945625000000D+02-2.922024194859D+00-7.957474317889D-09
   -2.357241045694D-11 1.000000000000D+00 1.721000000000D+03 0.000000000000D+00
    2.000000000000D+00 0.000000000000D+00-1.117587089539D-08 6.400000000000D+01
    3.330780000000D+05 4.000000000000D+00
 4 13  1  2 22  0  0.0 9.353412315249D-05 1.114131009672D-11 0.000000000000D+00
    8.900000000000D+01 4.375000000000D+00 4.853059292256D-09-1.501527347384D+00
    3.408640623093D-07 1.041104772594D-02 1.089274883270D-05 5.153726097107D+03
    3.384000000000D+05 2.291053533554D-07 1.163350120922D+00 3.725290298462D-09
    9.374762848502D-01 1.486250000000D+02 9.497651858523D-01-8.090336995010D-09
    3.100129132822D-10 1.000000000000D+00 1.721000000000D+03 0.000000000000D+00
    2.000000000000D+00 0.000000000000D+00-6.519258022308D-09 8.900000000000D+01
    3.331980000000D+05 4.000000000000D+00
